{
  "norad_id": 57908,
  "name": "STARLINK-30464",
  "history": [
    {
      "epoch": "2026-03-28T20:00:01.999872Z",
      "apogee_km": 533.9161699040042,
      "perigee_km": 532.1044817440134,
      "latitude_deg": 26.65989276557726,
      "longitude_deg": 114.68803691865799,
      "height_km": 533.2248937754769,
      "semi_major_axis_km": 6911.1473258240085,
      "eccentricity": 0.00013107,
      "inclination_deg": 42.9998,
      "raan_deg": 208.5699,
      "arg_perigee_deg": 302.6072,
      "mean_anomaly_deg": 98.351,
      "mean_motion_rev_day": 15.11045478
    },
    {
      "epoch": "2026-03-29T04:00:01.999584Z",
      "apogee_km": 533.7933082447371,
      "perigee_km": 532.1387901747576,
      "latitude_deg": 34.72364647300791,
      "longitude_deg": 7.803391153723023,
      "height_km": 534.8958197514469,
      "semi_major_axis_km": 6911.103049209747,
      "eccentricity": 0.0001197,
      "inclination_deg": 42.9998,
      "raan_deg": 206.7316,
      "arg_perigee_deg": 287.7694,
      "mean_anomaly_deg": 128.5723,
      "mean_motion_rev_day": 15.11059999
    }
  ]
}